{
  "type": "FeatureCollection",
  "features": [
    {
      "type": "Feature",
      "properties": {
        "norad_id": 34079,
        "name": "IRIDIUM 33 DEB",
        "group": "iridium-33-debris",
        "lat": -59.323771370042515,
        "lon": 6.300543224898622,
        "alt_km": 626.7231472175627,
        "timestamp": "2025-12-04T10:51:50.490354+00:00",
        "meta_object_name": "IRIDIUM 33 DEB",
        "meta_object_id": "1997-051CN",
        "meta_epoch": "2025-12-04T03:17:56.761728",
        "meta_mean_motion": 14.83177277,
        "meta_eccentricity": 0.0006628,
        "meta_inclination": 86.3779,
        "meta_ra_of_asc_node": 12.5738,
        "meta_arg_of_pericenter": 34.6176,
        "meta_mean_anomaly": 24.0914,
        "meta_ephemeris_type": 0,
        "meta_classification_type": "U",
        "meta_norad_cat_id": 34079,
        "meta_element_set_no": 999,
        "meta_rev_at_epoch": 88850,
        "meta_bstar": 0.0034857,
        "meta_mean_motion_dot": 0.0002856,
        "meta_mean_motion_ddot": 0,
        "tle_line1": "1 34079U 97051CN  25338.13746252  .00028560  00000+0  34857-2 0  9995",
        "tle_line2": "2 34079  86.3779  12.5738 0006628  34.6176  24.0914 14.83177277888506"
      },
      "geometry": {
        "type": "Point",
        "coordinates": [
          6.300543224898622,
          -59.323771370042515
        ]
      }
    },
    {
      "type": "Feature",
      "properties": {
        "norad_id": 34088,
        "name": "IRIDIUM 33 DEB",
        "group": "iridium-33-debris",
        "lat": 17.73278374307173,
        "lon": -146.62817258457247,
        "alt_km": 593.6297571462183,
        "timestamp": "2025-12-04T10:51:50.490365+00:00",
        "meta_object_name": "IRIDIUM 33 DEB",
        "meta_object_id": "1997-051CX",
        "meta_epoch": "2025-12-04T03:55:52.243104",
        "meta_mean_motion": 14.90715065,
        "meta_eccentricity": 0.0005152,
        "meta_inclination": 86.3857,
        "meta_ra_of_asc_node": 34.6625,
        "meta_arg_of_pericenter": 208.3378,
        "meta_mean_anomaly": 204.601,
        "meta_ephemeris_type": 0,
        "meta_classification_type": "U",
        "meta_norad_cat_id": 34088,
        "meta_element_set_no": 999,
        "meta_rev_at_epoch": 88614,
        "meta_bstar": 0.005902,
        "meta_mean_motion_dot": 0.00058368,
        "meta_mean_motion_ddot": 0,
        "tle_line1": "1 34088U 97051CX  25338.16379911  .00058368  00000+0  59020-2 0  9990",
        "tle_line2": "2 34088  86.3857  34.6625 0005152 208.3378 204.6010 14.90715065886140"
      },
      "geometry": {
        "type": "Point",
        "coordinates": [
          -146.62817258457247,
          17.73278374307173
        ]
      }
    },
    {
      "type": "Feature",
      "properties": {
        "norad_id": 34091,
        "name": "IRIDIUM 33 DEB",
        "group": "iridium-33-debris",
        "lat": -81.50464169660191,
        "lon": 45.26990188151889,
        "alt_km": 618.0773040421354,
        "timestamp": "2025-12-04T10:51:50.490376+00:00",
        "meta_object_name": "IRIDIUM 33 DEB",
        "meta_object_id": "1997-051DA",
        "meta_epoch": "2025-12-03T23:52:48.680832",
        "meta_mean_motion": 14.80720487,
        "meta_eccentricity": 0.0032914,
        "meta_inclination": 86.3424,
        "meta_ra_of_asc_node": 70.8357,
        "meta_arg_of_pericenter": 324.8669,
        "meta_mean_anomaly": 35.0381,
        "meta_ephemeris_type": 0,
        "meta_classification_type": "U",
        "meta_norad_cat_id": 34091,
        "meta_element_set_no": 999,
        "meta_rev_at_epoch": 87737,
        "meta_bstar": 0.010719,
        "meta_mean_motion_dot": 0.00084153,
        "meta_mean_motion_ddot": 0,
        "tle_line1": "1 34091U 97051DA  25337.99500788  .00084153  00000+0  10719-1 0  9994",
        "tle_line2": "2 34091  86.3424  70.8357 0032914 324.8669  35.0381 14.80720487877376"
      },
      "geometry": {
        "type": "Point",
        "coordinates": [
          45.26990188151889,
          -81.50464169660191
        ]
      }
    },
    {
      "type": "Feature",
      "properties": {
        "norad_id": 34097,
        "name": "IRIDIUM 33 DEB",
        "group": "iridium-33-debris",
        "lat": 64.26251674128629,
        "lon": 177.14215368205723,
        "alt_km": 765.612019324958,
        "timestamp": "2025-12-04T10:51:50.490387+00:00",
        "meta_object_name": "IRIDIUM 33 DEB",
        "meta_object_id": "1997-051DG",
        "meta_epoch": "2025-12-04T01:57:54.018144",
        "meta_mean_motion": 14.34672763,
        "meta_eccentricity": 0.0083592,
        "meta_inclination": 86.2004,
        "meta_ra_of_asc_node": 5.2294,
        "meta_arg_of_pericenter": 30.3184,
        "meta_mean_anomaly": 330.2808,
        "meta_ephemeris_type": 0,
        "meta_classification_type": "U",
        "meta_norad_cat_id": 34097,
        "meta_element_set_no": 999,
        "meta_rev_at_epoch": 86995,
        "meta_bstar": 0.0025969,
        "meta_mean_motion_dot": 7.662e-05,
        "meta_mean_motion_ddot": 0,
        "tle_line1": "1 34097U 97051DG  25338.08187521  .00007662  00000+0  25969-2 0  9991",
        "tle_line2": "2 34097  86.2004   5.2294 0083592  30.3184 330.2808 14.34672763869957"
      },
      "geometry": {
        "type": "Point",
        "coordinates": [
          177.14215368205723,
          64.26251674128629
        ]
      }
    },
    {
      "type": "Feature",
      "properties": {
        "norad_id": 34145,
        "name": "IRIDIUM 33 DEB",
        "group": "iridium-33-debris",
        "lat": 19.606896742792557,
        "lon": 154.86504614724691,
        "alt_km": 721.18302827774,
        "timestamp": "2025-12-04T10:51:50.490398+00:00",
        "meta_object_name": "IRIDIUM 33 DEB",
        "meta_object_id": "1997-051DY",
        "meta_epoch": "2025-12-04T00:08:11.975424",
        "meta_mean_motion": 14.42192963,
        "meta_eccentricity": 0.0055334,
        "meta_inclination": 86.2111,
        "meta_ra_of_asc_node": 336.4167,
        "meta_arg_of_pericenter": 121.5904,
        "meta_mean_anomaly": 239.0714,
        "meta_ephemeris_type": 0,
        "meta_classification_type": "U",
        "meta_norad_cat_id": 34145,
        "meta_element_set_no": 999,
        "meta_rev_at_epoch": 87512,
        "meta_bstar": 0.002013,
        "meta_mean_motion_dot": 6.772e-05,
        "meta_mean_motion_ddot": 0,
        "tle_line1": "1 34145U 97051DY  25338.00569416  .00006772  00000+0  20130-2 0  9990",
        "tle_line2": "2 34145  86.2111 336.4167 0055334 121.5904 239.0714 14.42192963875120"
      },
      "geometry": {
        "type": "Point",
        "coordinates": [
          154.86504614724691,
          19.606896742792557
        ]
      }
    },
    {
      "type": "Feature",
      "properties": {
        "norad_id": 34146,
        "name": "IRIDIUM 33 DEB",
        "group": "iridium-33-debris",
        "lat": -43.61178069799987,
        "lon": -10.088446668003016,
        "alt_km": 728.2446104669252,
        "timestamp": "2025-12-04T10:51:50.490409+00:00",
        "meta_object_name": "IRIDIUM 33 DEB",
        "meta_object_id": "1997-051DZ",
        "meta_epoch": "2025-12-04T01:24:47.588832",
        "meta_mean_motion": 14.48952534,
        "meta_eccentricity": 0.0025002,
        "meta_inclination": 86.2834,
        "meta_ra_of_asc_node": 353.6357,
        "meta_arg_of_pericenter": 252.753,
        "meta_mean_anomaly": 170.5987,
        "meta_ephemeris_type": 0,
        "meta_classification_type": "U",
        "meta_norad_cat_id": 34146,
        "meta_element_set_no": 999,
        "meta_rev_at_epoch": 87981,
        "meta_bstar": 0.0019733,
        "meta_mean_motion_dot": 7.524e-05,
        "meta_mean_motion_ddot": 0,
        "tle_line1": "1 34146U 97051DZ  25338.05888413  .00007524  00000+0  19733-2 0  9990",
        "tle_line2": "2 34146  86.2834 353.6357 0025002 252.7530 170.5987 14.48952534879811"
      },
      "geometry": {
        "type": "Point",
        "coordinates": [
          -10.088446668003016,
          -43.61178069799987
        ]
      }
    },
    {
      "type": "Feature",
      "properties": {
        "norad_id": 34159,
        "name": "IRIDIUM 33 DEB",
        "group": "iridium-33-debris",
        "lat": -15.403710045289051,
        "lon": 50.767272213603555,
        "alt_km": 751.6882853056786,
        "timestamp": "2025-12-04T10:51:50.490420+00:00",
        "meta_object_name": "IRIDIUM 33 DEB",
        "meta_object_id": "1997-051EN",
        "meta_epoch": "2025-12-04T04:15:26.250624",
        "meta_mean_motion": 14.38461079,
        "meta_eccentricity": 0.0026411,
        "meta_inclination": 86.3517,
        "meta_ra_of_asc_node": 51.8918,
        "meta_arg_of_pericenter": 317.9341,
        "meta_mean_anomaly": 41.9828,
        "meta_ephemeris_type": 0,
        "meta_classification_type": "U",
        "meta_norad_cat_id": 34159,
        "meta_element_set_no": 999,
        "meta_rev_at_epoch": 87836,
        "meta_bstar": 0.00075867,
        "meta_mean_motion_dot": 2.343e-05,
        "meta_mean_motion_ddot": 0,
        "tle_line1": "1 34159U 97051EN  25338.17738716  .00002343  00000+0  75867-3 0  9992",
        "tle_line2": "2 34159  86.3517  51.8918 0026411 317.9341  41.9828 14.38461079878365"
      },
      "geometry": {
        "type": "Point",
        "coordinates": [
          50.767272213603555,
          -15.403710045289051
        ]
      }
    }
  ]
}